{
  "norad_id": 60559,
  "name": "FLOCK 4BE-5",
  "history": [
    {
      "epoch": "2026-03-28T19:08:56.959008",
      "apogee_km": 455.1014754203088,
      "perigee_km": 450.5221439572706,
      "latitude_deg": -54.81987786401902,
      "longitude_deg": -47.50337888021022,
      "semi_major_axis_km": 6830.94880968879,
      "eccentricity": 0.00033519,
      "inclination_deg": 97.3862,
      "raan_deg": 171.1687,
      "arg_perigee_deg": 201.2342,
      "mean_anomaly_deg": 158.8764,
      "mean_motion_rev_day": 15.37733996
    },
    {
      "epoch": "2026-03-29T04:31:10.499808",
      "apogee_km": 455.0398578020486,
      "perigee_km": 450.43175100819644,
      "latitude_deg": -57.13709149979606,
      "longitude_deg": -10.02166687999852,
      "semi_major_axis_km": 6830.872804405122,
      "eccentricity": 0.0003373,
      "inclination_deg": 97.3863,
      "raan_deg": 171.5615,
      "arg_perigee_deg": 199.9729,
      "mean_anomaly_deg": 160.1384,
      "mean_motion_rev_day": 15.37759661
    }
  ]
}